ONEWEB-0589             
1 54655U 22166P   25214.21197876  .00000064  00000+0  12278-3 0  9999
2 54655  87.9270 307.6310 0002396 119.8962 240.2410 13.21825800129876
ONEWEB-0590             
1 54656U 22166Q   25213.32711808 -.00000005  00000+0 -42570-4 0  9994
2 54656  87.9268 307.7849 0001571 106.4497 253.6809 13.21827925129275
ONEWEB-0591             
1 54657U 22166R   25214.17255088 -.00000012  00000+0 -59354-4 0  9998
2 54657  87.9270 307.6397 0002025 103.9241 256.2118 13.21825925129876
ONEWEB-0592             
1 54658U 22166S   25214.17570669 -.00000022  00000+0 -84328-4 0  9994
2 54658  87.9276 307.5909 0001971 103.4987 256.6367 13.21825940129767
ONEWEB-0593             
1 54659U 22166T   25214.19936228  .00000062  00000+0  11901-3 0  9992
2 54659  87.9268 307.6242 0002097 104.5494 255.5873 13.21826351129874
ONEWEB-0594             
1 54660U 22166U   25214.21828605  .00000039  00000+0  62724-4 0  9990
2 54660  87.9272 307.6355 0002048  97.7306 262.4061 13.21825241129881
ONEWEB-0595             
1 54661U 22166V   25213.66632905  .00000046  00000+0  80598-4 0  9992
2 54661  87.9271 307.7220 0001854  95.6204 264.5141 13.21826280129326
ONEWEB-0596             
1 54662U 22166W   25213.33673331  .00000038  00000+0  60185-4 0  9996
2 54662  87.9272 307.8020 0001908 100.4854 259.6495 13.21826323129283
